QIANFAN-65              
1 62795U 25016L   25272.96218278  .00000087  00000+0  11661-3 0  9996
2 62795  88.9735 110.6950 0013349 189.6171 170.4726 13.50970077 37282
QIANFAN-66              
1 62796U 25016M   25272.99105266  .00000078  00000+0  10240-3 0  9994
2 62796  88.9754 110.6479 0014608 185.5386 174.5606 13.50965196 37336
QIANFAN-67              
1 62797U 25016N   25272.99504231  .00000066  00000+0  83316-4 0  9992
2 62797  88.9744 110.6800 0014368 192.5807 167.4987 13.50966704 37309
QIANFAN-68              
1 62798U 25016P   25266.46913683  .00000070  00000+0  89224-4 0  9992
2 62798  88.9758 111.3962 0013928 210.6591 149.3747 13.50984556 36403
QIANFAN-69              
1 62799U 25016Q   25273.00333003  .00000050  00000+0  59274-4 0  9993
2 62799  88.9728 110.6070 0015186 192.1808 167.8978 13.50966688 37325
QIANFAN-70              
1 62800U 25016R   25272.94563987  .00000077  00000+0  10056-3 0  9997
2 62800  88.9748 110.7359 0015057 182.3260 177.7824 13.50971394 37275
QIANFAN-71              
1 62801U 25016S   25272.94161013  .00000066  00000+0  83253-4 0  9990
2 62801  88.9743 110.7204 0015003 196.0449 164.0229 13.50970366 37278
QIANFAN-72              
1 62802U 25016T   25272.95623684  .00000096  00000+0  13258-3 0  9999
2 62802  88.9732 110.7390 0018329 204.4167 155.6116 13.49486715 37266
